[{"OBJECT_NAME":"STARLINK-4556","OBJECT_ID":"2022-101BD","EPOCH":"2026-03-09T23:25:58.497600","MEAN_MOTION":15.0884579,"ECCENTRICITY":0.00012969,"INCLINATION":53.2179,"RA_OF_ASC_NODE":52.4671,"ARG_OF_PERICENTER":90.34,"MEAN_ANOMALY":269.774,"EPHEMERIS_TYPE":0,"CLASSIFICATION_TYPE":"U","NORAD_CAT_ID":53578,"ELEMENT_SET_NO":999,"REV_AT_EPOCH":19649,"BSTAR":0.0001008259,"MEAN_MOTION_DOT":1.317e-5,"MEAN_MOTION_DDOT":0},{"OBJECT_NAME":"DISKSAT A","OBJECT_ID":"2025-305D","EPOCH":"2026-03-09T13:08:58.223040","MEAN_MOTION":15.07741062,"ECCENTRICITY":0.0004082,"INCLINATION":45.0023,"RA_OF_ASC_NODE":251.6019,"ARG_OF_PERICENTER":318.1929,"MEAN_ANOMALY":41.8634,"EPHEMERIS_TYPE":0,"CLASSIFICATION_TYPE":"U","NORAD_CAT_ID":67222,"ELEMENT_SET_NO":999,"REV_AT_EPOCH":1226,"BSTAR":0.00090452,"MEAN_MOTION_DOT":0.00013824,"MEAN_MOTION_DDOT":0}]
